HYPERFIELD-1A           
1 60562U 24149CY  26068.76488211  .00008569  00000+0  30052-3 0  9998
2 60562  97.3842 149.5066 0003865 313.7844  46.3076 15.29681349 86836
STARLINK-36534          
1 67496U 26012D   26068.06145940  .00028049  00000+0  10243-2 0  9998
2 67496  43.0005 318.1353 0001647 269.2852  90.7811 15.27601101  7661
